"CCSDS_OMM_VERS","COMMENT","CREATION_DATE","ORIGINATOR","OBJECT_NAME","OBJECT_ID","CENTER_NAME","REF_FRAME","TIME_SYSTEM","MEAN_ELEMENT_THEORY","EPOCH","MEAN_MOTION","ECCENTRICITY","INCLINATION","RA_OF_ASC_NODE","ARG_OF_PERICENTER","MEAN_ANOMALY","EPHEMERIS_TYPE","CLASSIFICATION_TYPE","NORAD_CAT_ID","ELEMENT_SET_NO","REV_AT_EPOCH","BSTAR","MEAN_MOTION_DOT","MEAN_MOTION_DDOT","SEMIMAJOR_AXIS","PERIOD","APOAPSIS","PERIAPSIS","OBJECT_TYPE","RCS_SIZE","COUNTRY_CODE","LAUNCH_DATE","SITE","DECAY_DATE","FILE","GP_ID","TLE_LINE0","TLE_LINE1","TLE_LINE2"
"2.0","GENERATED VIA SPACE-TRACK.ORG API","2023-01-29T06:26:12","18 SPCS","CARTOSAT 3","2019-081A","EARTH","TEME","UTC","SGP4","2023-01-29T05:04:27.128640","15.19312900","0.00120130","97.3683","90.7740","143.6287","271.8284","0","U","44804","999","17591","0.00027910000000","0.00005837","0.0000000000000","6886.053","94.780","516.190","499.646","PAYLOAD","LARGE","IND","2019-11-27","SRI",null,"3764212","223915930","0 CARTOSAT 3","1 44804U 19081A   23029.21142510  .00005837  00000-0  27910-3 0  9996","2 44804  97.3683  90.7740 0012013 143.6287 271.8284 15.19312900175919"
"2.0","GENERATED VIA SPACE-TRACK.ORG API","2023-01-29T14:16:13","18 SPCS","CARTOSAT 3","2019-081A","EARTH","TEME","UTC","SGP4","2023-01-29T08:33:54.313632","15.19314239","0.00120460","97.3682","90.9158","143.0643","347.4443","0","U","44804","999","17593","0.00027712000000","0.00005795","0.0000000000000","6886.049","94.780","516.209","499.619","PAYLOAD","LARGE","IND","2019-11-27","SRI",null,"3764539","223923260","0 CARTOSAT 3","1 44804U 19081A   23029.35687863  .00005795  00000-0  27712-3 0  9999","2 44804  97.3682  90.9158 0012046 143.0643 347.4443 15.19314239175935"
"2.0","GENERATED VIA SPACE-TRACK.ORG API","2023-01-29T22:16:13","18 SPCS","CARTOSAT 3","2019-081A","EARTH","TEME","UTC","SGP4","2023-01-29T17:59:01.005216","15.19317634","0.00120430","97.3680","91.2986","142.2038","333.3849","0","U","44804","999","17599","0.00026962000000","0.00005637","0.0000000000000","6886.039","94.779","516.197","499.611","PAYLOAD","LARGE","IND","2019-11-27","SRI",null,"3764771","223928782","0 CARTOSAT 3","1 44804U 19081A   23029.74931719  .00005637  00000-0  26962-3 0  9995","2 44804  97.3680  91.2986 0012043 142.2038 333.3849 15.19317634175994"
"2.0","GENERATED VIA SPACE-TRACK.ORG API","2023-01-30T02:21:05","18 SPCS","CARTOSAT 3","2019-081A","EARTH","TEME","UTC","SGP4","2023-01-29T21:06:56.214720","15.19318177","0.00120690","97.3682","91.4258","141.7707","327.1324","0","U","44804","999","17601","0.00026446000000","0.00005528","0.0000000000000","6886.037","94.779","516.213","499.591","PAYLOAD","LARGE","IND","2019-11-27","SRI",null,"3765015","223954525","0 CARTOSAT 3","1 44804U 19081A   23029.87981730  .00005528  00000-0  26446-3 0  9993","2 44804  97.3682  91.4258 0012069 141.7707 327.1324 15.19318177176011"
"2.0","GENERATED VIA SPACE-TRACK.ORG API","2023-01-30T06:36:12","18 SPCS","CARTOSAT 3","2019-081A","EARTH","TEME","UTC","SGP4","2023-01-30T00:13:24.423744","15.19319134","0.00120880","97.3683","91.5521","141.3754","315.3411","0","U","44804","999","17603","0.00026178000000","0.00005472","0.0000000000000","6886.034","94.779","516.223","499.575","PAYLOAD","LARGE","IND","2019-11-27","SRI",null,"3765031","223960807","0 CARTOSAT 3","1 44804U 19081A   23030.00931046  .00005472  00000-0  26178-3 0  9995","2 44804  97.3683  91.5521 0012088 141.3754 315.3411 15.19319134176037"
"2.0","GENERATED VIA SPACE-TRACK.ORG API","2023-01-30T14:16:12","18 SPCS","CARTOSAT 3","2019-081A","EARTH","TEME","UTC","SGP4","2023-01-30T11:25:24.775680","15.19322845","0.00120760","97.3681","92.0073","140.1352","347.4245","0","U","44804","999","17610","0.00025295000000","0.00005285","0.0000000000000","6886.023","94.779","516.203","499.572","PAYLOAD","LARGE","IND","2019-11-27","SRI",null,"3765403","223969069","0 CARTOSAT 3","1 44804U 19081A   23030.47598120  .00005285  00000-0  25295-3 0  9999","2 44804  97.3681  92.0073 0012076 140.1352 347.4245 15.19322845176103"
"2.0","GENERATED VIA SPACE-TRACK.ORG API","2023-01-30T17:24:27","18 SPCS","CARTOSAT 3","2019-081A","EARTH","TEME","UTC","SGP4","2023-01-30T11:25:24.775680","15.19322845","0.00120760","97.3681","92.0073","140.1352","347.4245","0","U","44804","999","17610","0.00025295000000","0.00005285","0.0000000000000","6886.023","94.779","516.203","499.572","PAYLOAD","LARGE","IND","2019-11-27","SRI",null,"3765576","223993384","0 CARTOSAT 3","1 44804U 19081A   23030.47598120  .00005285  00000-0  25295-3 0  9999","2 44804  97.3681  92.0073 0012076 140.1352 347.4245 15.19322845176103"
"2.0","GENERATED VIA SPACE-TRACK.ORG API","2023-01-30T22:16:12","18 SPCS","CARTOSAT 3","2019-081A","EARTH","TEME","UTC","SGP4","2023-01-30T19:14:46.200768","15.19324816","0.00120520","97.3681","92.3251","139.0937","330.0823","0","U","44804","999","17615","0.00024369000000","0.00005089","0.0000000000000","6886.017","94.779","516.181","499.583","PAYLOAD","LARGE","IND","2019-11-27","SRI",null,"3765631","224026990","0 CARTOSAT 3","1 44804U 19081A   23030.80192362  .00005089  00000-0  24369-3 0  9997","2 44804  97.3681  92.3251 0012052 139.0937 330.0823 15.19324816176159"
"2.0","GENERATED VIA SPACE-TRACK.ORG API","2023-01-31T04:45:22","18 SPCS","CARTOSAT 3","2019-081A","EARTH","TEME","UTC","SGP4","2023-01-30T19:14:46.200768","15.19324816","0.00120520","97.3681","92.3251","139.0937","330.0823","0","U","44804","999","17615","0.00024369000000","0.00005089","0.0000000000000","6886.017","94.779","516.181","499.583","PAYLOAD","LARGE","IND","2019-11-27","SRI",null,"3765849","224051841","0 CARTOSAT 3","1 44804U 19081A   23030.80192362  .00005089  00000-0  24369-3 0  9997","2 44804  97.3681  92.3251 0012052 139.0937 330.0823 15.19324816176159"
"2.0","GENERATED VIA SPACE-TRACK.ORG API","2023-01-31T06:26:12","18 SPCS","CARTOSAT 3","2019-081A","EARTH","TEME","UTC","SGP4","2023-01-31T02:48:15.992064","15.19326287","0.00120770","97.3682","92.6327","138.6385","251.9496","0","U","44804","999","17620","0.00023347000000","0.00004873","0.0000000000000","6886.012","94.779","516.194","499.561","PAYLOAD","LARGE","IND","2019-11-27","SRI",null,"3765855","224058088","0 CARTOSAT 3","1 44804U 19081A   23031.11685176  .00004873  00000-0  23347-3 0  9997","2 44804  97.3682  92.6327 0012077 138.6385 251.9496 15.19326287176203"
"2.0","GENERATED VIA SPACE-TRACK.ORG API","2023-01-31T14:16:12","18 SPCS","CARTOSAT 3","2019-081A","EARTH","TEME","UTC","SGP4","2023-01-31T09:33:26.760096","15.19328112","0.00121200","97.3683","92.9072","137.8395","350.7617","0","U","44804","999","17624","0.00022717000000","0.00004740","0.0000000000000","6886.007","94.779","516.218","499.526","PAYLOAD","LARGE","IND","2019-11-27","SRI",null,"3766208","224066279","0 CARTOSAT 3","1 44804U 19081A   23031.39822639  .00004740  00000-0  22717-3 0  9997","2 44804  97.3683  92.9072 0012120 137.8395 350.7617 15.19328112176241"
"2.0","GENERATED VIA SPACE-TRACK.ORG API","2023-01-31T17:42:24","18 SPCS","CARTOSAT 3","2019-081A","EARTH","TEME","UTC","SGP4","2023-01-31T12:38:47.634144","15.19328972","0.00120660","97.3684","93.0328","137.2146","334.9454","0","U","44804","999","17626","0.00022455000000","0.00004685","0.0000000000000","6886.004","94.779","516.178","499.561","PAYLOAD","LARGE","IND","2019-11-27","SRI",null,"3766475","224092457","0 CARTOSAT 3","1 44804U 19081A   23031.52694021  .00004685  00000-0  22455-3 0  9991","2 44804  97.3684  93.0328 0012066 137.2146 334.9454 15.19328972176264"
"2.0","GENERATED VIA SPACE-TRACK.ORG API","2023-01-31T22:16:12","18 SPCS","CARTOSAT 3","2019-081A","EARTH","TEME","UTC","SGP4","2023-01-31T20:33:17.591904","15.19330233","0.00120960","97.3685","93.3545","135.8077","337.4929","0","U","44804","999","17631","0.00021316000000","0.00004444","0.0000000000000","6886.001","94.779","516.195","499.536","PAYLOAD","LARGE","IND","2019-11-27","SRI",null,"3766571","224099530","0 CARTOSAT 3","1 44804U 19081A   23031.85645361  .00004444  00000-0  21316-3 0  9998","2 44804  97.3685  93.3545 0012096 135.8077 337.4929 15.19330233176313"
"2.0","GENERATED VIA SPACE-TRACK.ORG API","2023-02-01T03:54:44","18 SPCS","CARTOSAT 3","2019-081A","EARTH","TEME","UTC","SGP4","2023-01-31T20:33:17.591904","15.19330233","0.00120960","97.3685","93.3545","135.8077","337.4929","0","U","44804","999","17631","0.00021316000000","0.00004444","0.0000000000000","6886.001","94.779","516.195","499.536","PAYLOAD","LARGE","IND","2019-11-27","SRI",null,"3766747","224123314","0 CARTOSAT 3","1 44804U 19081A   23031.85645361  .00004444  00000-0  21316-3 0  9998","2 44804  97.3685  93.3545 0012096 135.8077 337.4929 15.19330233176313"
"2.0","GENERATED VIA SPACE-TRACK.ORG API","2023-02-01T06:26:12","18 SPCS","CARTOSAT 3","2019-081A","EARTH","TEME","UTC","SGP4","2023-02-01T04:19:55.682976","15.19332684","0.00121330","97.3686","93.6704","134.9958","309.6035","0","U","44804","999","17636","0.00020973000000","0.00004371","0.0000000000000","6885.993","94.778","516.213","499.503","PAYLOAD","LARGE","IND","2019-11-27","SRI",null,"3766762","224157057","0 CARTOSAT 3","1 44804U 19081A   23032.18050559  .00004371  00000-0  20973-3 0  9991","2 44804  97.3686  93.6704 0012133 134.9958 309.6035 15.19332684176360"
"2.0","GENERATED VIA SPACE-TRACK.ORG API","2023-02-01T14:16:14","18 SPCS","CARTOSAT 3","2019-081A","EARTH","TEME","UTC","SGP4","2023-02-01T08:58:24.883968","15.19334083","0.00121770","97.3685","93.8594","134.3117","287.3957","0","U","44804","999","17639","0.00020759000000","0.00004326","0.0000000000000","6885.989","94.778","516.239","499.469","PAYLOAD","LARGE","IND","2019-11-27","SRI",null,"3767268","224168136","0 CARTOSAT 3","1 44804U 19081A   23032.37389912  .00004326  00000-0  20759-3 0  9992","2 44804  97.3685  93.8594 0012177 134.3117 287.3957 15.19334083176390"
